[{"OBJECT_NAME":"STARLINK-35522","OBJECT_ID":"2025-253Y","EPOCH":"2026-03-09T10:25:32.642976","MEAN_MOTION":15.27603366,"ECCENTRICITY":0.0002989,"INCLINATION":42.9998,"RA_OF_ASC_NODE":214.1001,"ARG_OF_PERICENTER":293.4292,"MEAN_ANOMALY":66.6246,"EPHEMERIS_TYPE":0,"CLASSIFICATION_TYPE":"U","NORAD_CAT_ID":66341,"ELEMENT_SET_NO":999,"REV_AT_EPOCH":2020,"BSTAR":0.0013462243,"MEAN_MOTION_DOT":0.00036998,"MEAN_MOTION_DDOT":0},{"OBJECT_NAME":"COSMOS 546","OBJECT_ID":"1973-005A","EPOCH":"2026-03-09T21:40:39.247392","MEAN_MOTION":15.29707303,"ECCENTRICITY":0.00147738,"INCLINATION":50.6327,"RA_OF_ASC_NODE":289.914,"ARG_OF_PERICENTER":261.1516,"MEAN_ANOMALY":98.7778,"EPHEMERIS_TYPE":0,"CLASSIFICATION_TYPE":"U","NORAD_CAT_ID":6350,"ELEMENT_SET_NO":999,"REV_AT_EPOCH":92802,"BSTAR":9.142057e-5,"MEAN_MOTION_DOT":2.316e-5,"MEAN_MOTION_DDOT":0}]
